{"type": "FeatureCollection", "features": [ {"type": "Feature", "properties": {"norad_id": 51444, "name": "CSG-2", "group": "resource", "lat": 68.89973765347096, "lon": 146.98845813664593, "alt_km": 614.7476203073875, "timestamp": "2025-12-12T16:50:32.805417+00:00", "meta": {"OBJECT_NAME": "CSG-2", "OBJECT_ID": "2022-008A", "EPOCH": "2025-12-12T08:25:29.945856", "MEAN_MOTION": 14.82164691, "ECCENTRICITY": 0.00015495, "INCLINATION": 97.8809, "RA_OF_ASC_NODE": 167.6798, "ARG_OF_PERICENTER": 83.5878, "MEAN_ANOMALY": 276.5512, "EPHEMERIS_TYPE": 0, "CLASSIFICATION_TYPE": "U", "NORAD_CAT_ID": 51444, "ELEMENT_SET_NO": 999, "REV_AT_EPOCH": 20891, "BSTAR": 0.00015219259, "MEAN_MOTION_DOT": 1.16e-05, "MEAN_MOTION_DDOT": 0}, "tle": {"line1": "1 51444U 22008A   25346.35104104  .00001160  00000+0  15219-3 0  9996", "line2": "2 51444  97.8809 167.6798 0001549  83.5878 276.5512 14.82164691208913"}}, "geometry": {"type": "Point", "coordinates": [146.98845813664593, 68.89973765347096]}}, {"type": "Feature", "properties": {"norad_id": 52912, "name": "GAOFEN-12 03", "group": "resource", "lat": -12.737531174238251, "lon": -124.16185114000983, "alt_km": 634.6473984273334, "timestamp": "2025-12-12T16:50:32.805428+00:00", "meta": {"OBJECT_NAME": "GAOFEN-12 03", "OBJECT_ID": "2022-069A", "EPOCH": "2025-12-12T07:09:43.829280", "MEAN_MOTION": 14.79607336, "ECCENTRICITY": 0.00021722, "INCLINATION": 97.8475, "RA_OF_ASC_NODE": 233.6577, "ARG_OF_PERICENTER": 62.1312, "MEAN_ANOMALY": 298.0119, "EPHEMERIS_TYPE": 0, "CLASSIFICATION_TYPE": "U", "NORAD_CAT_ID": 52912, "ELEMENT_SET_NO": 999, "REV_AT_EPOCH": 18697, "BSTAR": 0.00026029896, "MEAN_MOTION_DOT": 1.9e-05, "MEAN_MOTION_DDOT": 0}, "tle": {"line1": "1 52912U 22069A   25346.29842395  .00001900  00000+0  26030-3 0  9993", "line2": "2 52912  97.8475 233.6577 0002172  62.1312 298.0119 14.79607336186978"}}, "geometry": {"type": "Point", "coordinates": [-124.16185114000983, -12.737531174238251]}}, {"type": "Feature", "properties": {"norad_id": 54754, "name": "SWOT", "group": "resource", "lat": -25.73950911992591, "lon": -79.04219204445535, "alt_km": 898.797325866457, "timestamp": "2025-12-12T16:50:32.805438+00:00", "meta": {"OBJECT_NAME": "SWOT", "OBJECT_ID": "2022-173A", "EPOCH": "2025-12-12T06:40:43.925088", "MEAN_MOTION": 14.00174617, "ECCENTRICITY": 3.386e-05, "INCLINATION": 77.6106, "RA_OF_ASC_NODE": 287.6125, "ARG_OF_PERICENTER": 112.0086, "MEAN_ANOMALY": 248.1102, "EPHEMERIS_TYPE": 0, "CLASSIFICATION_TYPE": "U", "NORAD_CAT_ID": 54754, "ELEMENT_SET_NO": 999, "REV_AT_EPOCH": 15299, "BSTAR": 5.3174104e-05, "MEAN_MOTION_DOT": 7.6e-07, "MEAN_MOTION_DDOT": 0}, "tle": {"line1": "1 54754U 22173A   25346.27828617  .00000076  00000+0  53174-4 0  9997", "line2": "2 54754  77.6106 287.6125 0000338 112.0086 248.1102 14.00174617152992"}}, "geometry": {"type": "Point", "coordinates": [-79.04219204445535, -25.73950911992591]}}, {"type": "Feature", "properties": {"norad_id": 57654, "name": "GAOFEN-12 04", "group": "resource", "lat": 22.775535636405472, "lon": 85.80676787424225, "alt_km": 629.8207092590401, "timestamp": "2025-12-12T16:50:32.805448+00:00", "meta": {"OBJECT_NAME": "GAOFEN-12 04", "OBJECT_ID": "2023-123A", "EPOCH": "2025-12-12T08:01:16.207104", "MEAN_MOTION": 14.79698953, "ECCENTRICITY": 0.00013306, "INCLINATION": 97.9116, "RA_OF_ASC_NODE": 262.0977, "ARG_OF_PERICENTER": 74.4041, "MEAN_ANOMALY": 285.7318, "EPHEMERIS_TYPE": 0, "CLASSIFICATION_TYPE": "U", "NORAD_CAT_ID": 57654, "ELEMENT_SET_NO": 999, "REV_AT_EPOCH": 12499, "BSTAR": 0.00032248518, "MEAN_MOTION_DOT": 2.371e-05, "MEAN_MOTION_DDOT": 0}, "tle": {"line1": "1 57654U 23123A   25346.33421536  .00002371  00000+0  32249-3 0  9990", "line2": "2 57654  97.9116 262.0977 0001330  74.4041 285.7318 14.79698953124992"}}, "geometry": {"type": "Point", "coordinates": [85.80676787424225, 22.775535636405472]}}, {"type": "Feature", "properties": {"norad_id": 59065, "name": "PARS 1", "group": "resource", "lat": -5.337832094758514, "lon": 136.93212087959935, "alt_km": 450.37550001196996, "timestamp": "2025-12-12T16:50:32.805459+00:00", "meta": {"OBJECT_NAME": "PARS 1", "OBJECT_ID": "2024-039Q", "EPOCH": "2025-12-12T08:14:59.175744", "MEAN_MOTION": 15.40960231, "ECCENTRICITY": 0.00125844, "INCLINATION": 97.4636, "RA_OF_ASC_NODE": 317.2683, "ARG_OF_PERICENTER": 73.5043, "MEAN_ANOMALY": 286.7585, "EPHEMERIS_TYPE": 0, "CLASSIFICATION_TYPE": "U", "NORAD_CAT_ID": 59065, "ELEMENT_SET_NO": 999, "REV_AT_EPOCH": 9982, "BSTAR": 0.00041084528, "MEAN_MOTION_DOT": 0.00016894, "MEAN_MOTION_DDOT": 0}, "tle": {"line1": "1 59065U 24039Q   25346.34374046  .00016894  00000+0  41085-3 0  9992", "line2": "2 59065  97.4636 317.2683 0012584  73.5043 286.7585 15.40960231 99824"}}, "geometry": {"type": "Point", "coordinates": [136.93212087959935, -5.337832094758514]}}, {"type": "Feature", "properties": {"norad_id": 59371, "name": "RESURS-P 4", "group": "resource", "lat": -31.427960054121577, "lon": -62.50318537132648, "alt_km": 475.5934318042491, "timestamp": "2025-12-12T16:50:32.805469+00:00", "meta": {"OBJECT_NAME": "RESURS-P 4", "OBJECT_ID": "2024-061A", "EPOCH": "2025-12-12T07:34:31.785024", "MEAN_MOTION": 15.32080164, "ECCENTRICITY": 0.00015373, "INCLINATION": 97.254, "RA_OF_ASC_NODE": 292.6544, "ARG_OF_PERICENTER": 52.181, "MEAN_ANOMALY": 307.9571, "EPHEMERIS_TYPE": 0, "CLASSIFICATION_TYPE": "U", "NORAD_CAT_ID": 59371, "ELEMENT_SET_NO": 999, "REV_AT_EPOCH": 9514, "BSTAR": 0.00019633357, "MEAN_MOTION_DOT": 6.005e-05, "MEAN_MOTION_DDOT": 0}, "tle": {"line1": "1 59371U 24061A   25346.31564566  .00006005  00000+0  19633-3 0  9999", "line2": "2 59371  97.2540 292.6544 0001537  52.1810 307.9571 15.32080164 95140"}}, "geometry": {"type": "Point", "coordinates": [-62.50318537132648, -31.427960054121577]}}, {"type": "Feature", "properties": {"norad_id": 59625, "name": "LEGION 1", "group": "resource", "lat": -15.522416139089422, "lon": -120.76286744979842, "alt_km": 522.858327746615, "timestamp": "2025-12-12T16:50:32.805479+00:00", "meta": {"OBJECT_NAME": "LEGION 1", "OBJECT_ID": "2024-081A", "EPOCH": "2025-12-12T06:28:50.912544", "MEAN_MOTION": 15.16474437, "ECCENTRICITY": 0.00039629, "INCLINATION": 97.5212, "RA_OF_ASC_NODE": 60.9121, "ARG_OF_PERICENTER": 320.7679, "MEAN_ANOMALY": 39.3267, "EPHEMERIS_TYPE": 0, "CLASSIFICATION_TYPE": "U", "NORAD_CAT_ID": 59625, "ELEMENT_SET_NO": 999, "REV_AT_EPOCH": 8920, "BSTAR": 0.00039953702, "MEAN_MOTION_DOT": 7.714e-05, "MEAN_MOTION_DDOT": 0}, "tle": {"line1": "1 59625U 24081A   25346.27003371  .00007714  00000+0  39954-3 0  9996", "line2": "2 59625  97.5212  60.9121 0003962 320.7679  39.3267 15.16474437 89209"}}, "geometry": {"type": "Point", "coordinates": [-120.76286744979842, -15.522416139089422]}}, {"type": "Feature", "properties": {"norad_id": 59626, "name": "LEGION 2", "group": "resource", "lat": 15.143535488472427, "lon": 59.378342052299836, "alt_km": 516.7718286150221, "timestamp": "2025-12-12T16:50:32.805490+00:00", "meta": {"OBJECT_NAME": "LEGION 2", "OBJECT_ID": "2024-081B", "EPOCH": "2025-12-12T05:41:24.116352", "MEAN_MOTION": 15.1648464, "ECCENTRICITY": 0.00057693, "INCLINATION": 97.5213, "RA_OF_ASC_NODE": 60.9668, "ARG_OF_PERICENTER": 295.4982, "MEAN_ANOMALY": 64.5654, "EPHEMERIS_TYPE": 0, "CLASSIFICATION_TYPE": "U", "NORAD_CAT_ID": 59626, "ELEMENT_SET_NO": 999, "REV_AT_EPOCH": 8920, "BSTAR": 0.00043714497, "MEAN_MOTION_DOT": 8.451e-05, "MEAN_MOTION_DDOT": 0}, "tle": {"line1": "1 59626U 24081B   25346.23708468  .00008451  00000+0  43714-3 0  9990", "line2": "2 59626  97.5213  60.9668 0005769 295.4982  64.5654 15.16484640 89206"}}, "geometry": {"type": "Point", "coordinates": [59.378342052299836, 15.143535488472427]}}, {"type": "Feature", "properties": {"norad_id": 60182, "name": "ALOS-4 (DAICHI-4)", "group": "resource", "lat": 37.111604144568204, "lon": 75.50105731942303, "alt_km": 627.7694481897133, "timestamp": "2025-12-12T16:50:32.805500+00:00", "meta": {"OBJECT_NAME": "ALOS-4 (DAICHI-4)", "OBJECT_ID": "2024-123A", "EPOCH": "2025-12-10T20:50:51.532800", "MEAN_MOTION": 14.79478132, "ECCENTRICITY": 0.0001419, "INCLINATION": 97.9225, "RA_OF_ASC_NODE": 79.7424, "ARG_OF_PERICENTER": 101.2045, "MEAN_ANOMALY": 258.9326, "EPHEMERIS_TYPE": 0, "CLASSIFICATION_TYPE": "U", "NORAD_CAT_ID": 60182, "ELEMENT_SET_NO": 999, "REV_AT_EPOCH": 7803, "BSTAR": 0.00039567, "MEAN_MOTION_DOT": 2.905e-05, "MEAN_MOTION_DDOT": 0}, "tle": {"line1": "1 60182U 24123A   25344.86865200  .00002905  00000+0  39567-3 0  9990", "line2": "2 60182  97.9225  79.7424 0001419 101.2045 258.9326 14.79478132 78033"}}, "geometry": {"type": "Point", "coordinates": [75.50105731942303, 37.111604144568204]}}, {"type": "Feature", "properties": {"norad_id": 60452, "name": "LEGION 3", "group": "resource", "lat": 39.15154374198567, "lon": 4.892338796064516, "alt_km": 519.9342967850334, "timestamp": "2025-12-12T16:50:32.805511+00:00", "meta": {"OBJECT_NAME": "LEGION 3", "OBJECT_ID": "2024-146A", "EPOCH": "2025-12-12T05:29:30.788448", "MEAN_MOTION": 15.15753033, "ECCENTRICITY": 0.00148181, "INCLINATION": 45.0017, "RA_OF_ASC_NODE": 312.8722, "ARG_OF_PERICENTER": 195.944, "MEAN_ANOMALY": 164.0974, "EPHEMERIS_TYPE": 0, "CLASSIFICATION_TYPE": "U", "NORAD_CAT_ID": 60452, "ELEMENT_SET_NO": 999, "REV_AT_EPOCH": 7365, "BSTAR": 0.00042703628, "MEAN_MOTION_DOT": 8.048e-05, "MEAN_MOTION_DDOT": 0}, "tle": {"line1": "1 60452U 24146A   25346.22882857  .00008048  00000+0  42704-3 0  9995", "line2": "2 60452  45.0017 312.8722 0014818 195.9440 164.0974 15.15753033 73650"}}, "geometry": {"type": "Point", "coordinates": [4.892338796064516, 39.15154374198567]}}]}